{"fetched_at":"2026-07-24T07:06:32.171Z","source":"https://celestrak.org/NORAD/elements/gp.php?NAME=HAWK&FORMAT=JSON","constellation":"hawkeye-360","records":[{"OBJECT_NAME":"HAWK-A","OBJECT_ID":"2018-099H","EPOCH":"2026-07-23T13:43:12.880704","CLASSIFICATION_TYPE":"U","MEAN_MOTION":15.25049324,"ECCENTRICITY":0.003548,"INCLINATION":97.3896,"RA_OF_ASC_NODE":256.3375,"ARG_OF_PERICENTER":154.8687,"MEAN_ANOMALY":205.4288,"EPHEMERIS_TYPE":0,"NORAD_CAT_ID":43765,"ELEMENT_SET_NO":999,"REV_AT_EPOCH":41864,"BSTAR":0.00029393,"MEAN_MOTION_DOT":0.00007405,"MEAN_MOTION_DDOT":0},{"OBJECT_NAME":"HAWK-B","OBJECT_ID":"2018-099AN","EPOCH":"2026-07-23T13:42:43.187616","CLASSIFICATION_TYPE":"U","MEAN_MOTION":15.23189238,"ECCENTRICITY":0.0032216,"INCLINATION":97.3945,"RA_OF_ASC_NODE":255.6755,"ARG_OF_PERICENTER":172.6149,"MEAN_ANOMALY":187.557,"EPHEMERIS_TYPE":0,"NORAD_CAT_ID":43794,"ELEMENT_SET_NO":999,"REV_AT_EPOCH":41857,"BSTAR":0.00027428,"MEAN_MOTION_DOT":0.00006507,"MEAN_MOTION_DDOT":0},{"OBJECT_NAME":"HAWK-C","OBJECT_ID":"2018-099AT","EPOCH":"2026-07-23T12:43:47.513856","CLASSIFICATION_TYPE":"U","MEAN_MOTION":15.28594984,"ECCENTRICITY":0.004106,"INCLINATION":97.3871,"RA_OF_ASC_NODE":257.3906,"ARG_OF_PERICENTER":154.7047,"MEAN_ANOMALY":205.6215,"EPHEMERIS_TYPE":0,"NORAD_CAT_ID":43799,"ELEMENT_SET_NO":999,"REV_AT_EPOCH":41946,"BSTAR":0.00030877,"MEAN_MOTION_DOT":0.00008732,"MEAN_MOTION_DDOT":0},{"OBJECT_NAME":"HAWK-2C","OBJECT_ID":"2021-006CT","EPOCH":"2026-07-23T14:18:02.448288","CLASSIFICATION_TYPE":"U","MEAN_MOTION":15.35067447,"ECCENTRICITY":0.0008562,"INCLINATION":97.2264,"RA_OF_ASC_NODE":248.1847,"ARG_OF_PERICENTER":77.1167,"MEAN_ANOMALY":283.1033,"EPHEMERIS_TYPE":0,"NORAD_CAT_ID":47502,"ELEMENT_SET_NO":999,"REV_AT_EPOCH":30508,"BSTAR":0.00019467,"MEAN_MOTION_DOT":0.00006552,"MEAN_MOTION_DDOT":0},{"OBJECT_NAME":"HAWK-2A","OBJECT_ID":"2021-006CW","EPOCH":"2026-07-23T14:21:03.282624","CLASSIFICATION_TYPE":"U","MEAN_MOTION":15.35099654,"ECCENTRICITY":0.000808,"INCLINATION":97.2307,"RA_OF_ASC_NODE":248.8866,"ARG_OF_PERICENTER":80.7188,"MEAN_ANOMALY":279.4969,"EPHEMERIS_TYPE":0,"NORAD_CAT_ID":47505,"ELEMENT_SET_NO":999,"REV_AT_EPOCH":30508,"BSTAR":0.00022272,"MEAN_MOTION_DOT":0.00007515,"MEAN_MOTION_DDOT":0},{"OBJECT_NAME":"HAWK-2B","OBJECT_ID":"2021-006CZ","EPOCH":"2026-07-23T12:36:51.803712","CLASSIFICATION_TYPE":"U","MEAN_MOTION":15.35224502,"ECCENTRICITY":0.0008672,"INCLINATION":97.2178,"RA_OF_ASC_NODE":247.0899,"ARG_OF_PERICENTER":79.1542,"MEAN_ANOMALY":281.0677,"EPHEMERIS_TYPE":0,"NORAD_CAT_ID":47508,"ELEMENT_SET_NO":999,"REV_AT_EPOCH":30507,"BSTAR":0.00021912,"MEAN_MOTION_DOT":0.00007423,"MEAN_MOTION_DDOT":0},{"OBJECT_NAME":"HAWK-3B","OBJECT_ID":"2021-059BE","EPOCH":"2026-07-23T12:02:57.035328","CLASSIFICATION_TYPE":"U","MEAN_MOTION":15.72474094,"ECCENTRICITY":0.0005126,"INCLINATION":97.6638,"RA_OF_ASC_NODE":44.7262,"ARG_OF_PERICENTER":170.7586,"MEAN_ANOMALY":189.3772,"EPHEMERIS_TYPE":0,"NORAD_CAT_ID":48931,"ELEMENT_SET_NO":999,"REV_AT_EPOCH":28355,"BSTAR":0.00036486,"MEAN_MOTION_DOT":0.0004864,"MEAN_MOTION_DDOT":0},{"OBJECT_NAME":"HAWK-3C","OBJECT_ID":"2021-059BX","EPOCH":"2026-07-23T02:52:40.566144","CLASSIFICATION_TYPE":"U","MEAN_MOTION":15.724318,"ECCENTRICITY":0.00054243,"INCLINATION":97.6753,"RA_OF_ASC_NODE":50.0517,"ARG_OF_PERICENTER":171.4962,"MEAN_ANOMALY":188.6393,"EPHEMERIS_TYPE":0,"NORAD_CAT_ID":48948,"ELEMENT_SET_NO":999,"REV_AT_EPOCH":28349,"BSTAR":0.00038986946,"MEAN_MOTION_DOT":0.00051915,"MEAN_MOTION_DDOT":0},{"OBJECT_NAME":"HAWK-3A","OBJECT_ID":"2021-059CG","EPOCH":"2026-07-23T12:02:19.110912","CLASSIFICATION_TYPE":"U","MEAN_MOTION":15.72483174,"ECCENTRICITY":0.0005185,"INCLINATION":97.67,"RA_OF_ASC_NODE":47.6485,"ARG_OF_PERICENTER":171.7361,"MEAN_ANOMALY":188.3988,"EPHEMERIS_TYPE":0,"NORAD_CAT_ID":48957,"ELEMENT_SET_NO":999,"REV_AT_EPOCH":28355,"BSTAR":0.00037684,"MEAN_MOTION_DOT":0.00050271,"MEAN_MOTION_DDOT":0},{"OBJECT_NAME":"HAWK-5C","OBJECT_ID":"2022-057Y","EPOCH":"2026-07-23T08:14:47.226624","CLASSIFICATION_TYPE":"U","MEAN_MOTION":15.5254645,"ECCENTRICITY":0.0002342,"INCLINATION":97.6627,"RA_OF_ASC_NODE":6.3826,"ARG_OF_PERICENTER":304.3428,"MEAN_ANOMALY":55.7602,"EPHEMERIS_TYPE":0,"NORAD_CAT_ID":52754,"ELEMENT_SET_NO":999,"REV_AT_EPOCH":23195,"BSTAR":0.00029988,"MEAN_MOTION_DOT":0.00018311,"MEAN_MOTION_DDOT":0},{"OBJECT_NAME":"HAWK-5B","OBJECT_ID":"2022-057AA","EPOCH":"2026-07-23T08:14:32.847936","CLASSIFICATION_TYPE":"U","MEAN_MOTION":15.52546781,"ECCENTRICITY":0.0003022,"INCLINATION":97.6638,"RA_OF_ASC_NODE":4.7373,"ARG_OF_PERICENTER":291.3947,"MEAN_ANOMALY":68.6982,"EPHEMERIS_TYPE":0,"NORAD_CAT_ID":52756,"ELEMENT_SET_NO":999,"REV_AT_EPOCH":23195,"BSTAR":0.000314,"MEAN_MOTION_DOT":0.00019181,"MEAN_MOTION_DDOT":0},{"OBJECT_NAME":"HAWK-5A","OBJECT_ID":"2022-057AB","EPOCH":"2026-07-23T09:47:03.501024","CLASSIFICATION_TYPE":"U","MEAN_MOTION":15.5254893,"ECCENTRICITY":0.0002919,"INCLINATION":97.6637,"RA_OF_ASC_NODE":5.6359,"ARG_OF_PERICENTER":296.9642,"MEAN_ANOMALY":63.1311,"EPHEMERIS_TYPE":0,"NORAD_CAT_ID":52757,"ELEMENT_SET_NO":999,"REV_AT_EPOCH":23196,"BSTAR":0.00030144,"MEAN_MOTION_DOT":0.00018409,"MEAN_MOTION_DDOT":0},{"OBJECT_NAME":"HAWK-6B","OBJECT_ID":"2023-011A","EPOCH":"2026-07-23T20:04:37.631424","CLASSIFICATION_TYPE":"U","MEAN_MOTION":15.23211892,"ECCENTRICITY":0.0004564,"INCLINATION":40.4981,"RA_OF_ASC_NODE":138.2572,"ARG_OF_PERICENTER":283.3017,"MEAN_ANOMALY":76.7283,"EPHEMERIS_TYPE":0,"NORAD_CAT_ID":55324,"ELEMENT_SET_NO":999,"REV_AT_EPOCH":19343,"BSTAR":0.00018888,"MEAN_MOTION_DOT":0.00004371,"MEAN_MOTION_DDOT":0},{"OBJECT_NAME":"HAWK-6C","OBJECT_ID":"2023-011C","EPOCH":"2026-07-23T20:03:43.062048","CLASSIFICATION_TYPE":"U","MEAN_MOTION":15.23211246,"ECCENTRICITY":0.0004995,"INCLINATION":40.4974,"RA_OF_ASC_NODE":135.0963,"ARG_OF_PERICENTER":279.4626,"MEAN_ANOMALY":80.5619,"EPHEMERIS_TYPE":0,"NORAD_CAT_ID":55326,"ELEMENT_SET_NO":999,"REV_AT_EPOCH":19344,"BSTAR":0.00019029,"MEAN_MOTION_DOT":0.00004405,"MEAN_MOTION_DDOT":0},{"OBJECT_NAME":"HAWK-6A","OBJECT_ID":"2023-011D","EPOCH":"2026-07-23T20:03:46.156032","CLASSIFICATION_TYPE":"U","MEAN_MOTION":15.23212079,"ECCENTRICITY":0.0004809,"INCLINATION":40.4984,"RA_OF_ASC_NODE":136.7238,"ARG_OF_PERICENTER":275.4908,"MEAN_ANOMALY":84.5352,"EPHEMERIS_TYPE":0,"NORAD_CAT_ID":55327,"ELEMENT_SET_NO":999,"REV_AT_EPOCH":19344,"BSTAR":0.0001916,"MEAN_MOTION_DOT":0.00004437,"MEAN_MOTION_DDOT":0},{"OBJECT_NAME":"HAWK-7A","OBJECT_ID":"2023-054P","EPOCH":"2026-07-23T15:55:08.611104","CLASSIFICATION_TYPE":"U","MEAN_MOTION":15.27699387,"ECCENTRICITY":0.0000943,"INCLINATION":97.2653,"RA_OF_ASC_NODE":91.0727,"ARG_OF_PERICENTER":261.2494,"MEAN_ANOMALY":98.8639,"EPHEMERIS_TYPE":0,"NORAD_CAT_ID":56191,"ELEMENT_SET_NO":999,"REV_AT_EPOCH":18259,"BSTAR":0.00020051,"MEAN_MOTION_DOT":0.00005355,"MEAN_MOTION_DDOT":0}]}
